NORAD_CAT_ID,OBJECT_NAME,OBJECT_TYPE,EPOCH,MEAN_MOTION,ECCENTRICITY,INCLINATION,RA_OF_ASC_NODE,ARG_OF_PERICENTER,MEAN_ANOMALY,BSTAR,MEAN_MOTION_DOT,MEAN_MOTION_DDOT,TLE_LINE0,TLE_LINE1,TLE_LINE2,SEMIMAJOR_AXIS,PERIOD,APOGEE,PERIGEE,DECAYED
52312.0,STARLINK-3752,PAYLOAD,2024-08-17 22:01:23,15.0883858,0.0001404,53.2152,122.3888,97.9088,262.2064,0.00027573,4.103e-05,0.0,0 STARLINK-3752,1 52312U 22041BD  24230.91762864  .00004103  00000-0  27573-3 0  9991,2 52312  53.2152 122.3888 0001404  97.9088 262.2064 15.08838580130007,6917.885,95.438,540.721,538.778,0.0
52312.0,STARLINK-3752,PAYLOAD,2024-08-17 23:36:46,15.08841894,0.0001412,53.2154,122.0923,96.0725,264.0428,0.00027971,4.167e-05,0.0,0 STARLINK-3752,1 52312U 22041BD  24230.98386865  .00004167  00000-0  27971-3 0  9993,2 52312  53.2154 122.0923 0001412  96.0725 264.0428 15.08841894130010,6917.875,95.437,540.716,538.763,0.0
52312.0,STARLINK-3752,PAYLOAD,2024-08-18 20:16:46,15.0885495,0.0001371,53.2159,118.2258,101.6837,258.4309,0.000624,9.661e-05,0.0,0 STARLINK-3752,1 52312U 22041BD  24231.84498503  .00009661  00000-0  62400-3 0  9992,2 52312  53.2159 118.2258 0001371 101.6837 258.4309 15.08854950130140,6917.835,95.437,540.648,538.751,0.0
52312.0,STARLINK-3752,PAYLOAD,2024-08-18 21:52:09,15.08856779,0.0001347,53.2159,117.9308,96.6185,263.496,0.00066921,0.00010383,0.0,0 STARLINK-3752,1 52312U 22041BD  24231.91122466  .00010383  00000-0  66921-3 0  9997,2 52312  53.2159 117.9308 0001347  96.6185 263.4960 15.08856779130155,6917.829,95.436,540.626,538.762,0.0
52312.0,STARLINK-3752,PAYLOAD,2024-08-18 23:27:32,15.08858828,0.0001304,53.216,117.634,91.0595,269.0547,0.00073693,0.00011466,0.0,0 STARLINK-3752,1 52312U 22041BD  24231.97746434  .00011466  00000-0  73693-3 0  9997,2 52312  53.2160 117.6340 0001304  91.0595 269.0547 15.08858828130168,6917.823,95.436,540.59,538.786,0.0
52312.0,STARLINK-3752,PAYLOAD,2024-08-19 16:56:47,15.08837244,0.0001392,53.2159,114.3636,86.0681,274.0471,0.00011146,1.486e-05,0.0,0 STARLINK-3752,1 52312U 22041BD  24232.70611022  .00001486  00000-0  11146-3 0  9999,2 52312  53.2159 114.3636 0001392  86.0681 274.0471 15.08837244130278,6917.889,95.438,540.717,538.791,0.0
52312.0,STARLINK-3752,PAYLOAD,2024-08-19 21:42:57,15.08838767,0.0001358,53.2158,113.4714,96.9396,263.1751,0.00023709,3.487e-05,0.0,0 STARLINK-3752,1 52312U 22041BD  24232.90483028  .00003487  00000-0  23709-3 0  9995,2 52312  53.2158 113.4714 0001358  96.9396 263.1751 15.08838767130304,6917.884,95.438,540.689,538.81,0.0
52312.0,STARLINK-3752,PAYLOAD,2024-08-20 19:58:21,15.08844891,0.0001419,53.2159,109.3103,97.3665,262.7488,0.00040383,6.146e-05,0.0,0 STARLINK-3752,1 52312U 22041BD  24233.83219122  .00006146  00000-0  40383-3 0  9992,2 52312  53.2159 109.3103 0001419  97.3665 262.7488 15.08844891130445,6917.865,95.437,540.712,538.749,0.0
52312.0,STARLINK-3752,PAYLOAD,2024-08-21 00:44:30,15.08850207,0.000141,53.2157,108.4183,94.8771,265.2382,0.00049237,7.559e-05,0.0,0 STARLINK-3752,1 52312U 22041BD  24234.03090958  .00007559  00000-0  49237-3 0  9995,2 52312  53.2157 108.4183 0001410  94.8771 265.2382 15.08850207130474,6917.849,95.437,540.69,538.739,0.0
52312.0,STARLINK-3752,PAYLOAD,2024-08-21 19:49:08,15.08839874,0.0001509,53.2149,104.8417,124.5741,235.5394,7.987e-05,9.83e-06,0.0,0 STARLINK-3752,1 52312U 22041BD  24234.82579043  .00000983  00000-0  79870-4 0  9990,2 52312  53.2149 104.8417 0001509 124.5741 235.5394 15.08839874130595,6917.881,95.438,540.79,538.702,0.0
